{
  "type": "FeatureCollection",
  "features": [
    {
      "type": "Feature",
      "properties": {
        "norad_id": 29816,
        "name": "FENGYUN 1C DEB",
        "group": "fengyun-1c-debris",
        "lat": -68.99642720501201,
        "lon": 3.562038529569863,
        "alt_km": 709.9169966611689,
        "timestamp": "2025-12-13T20:38:51.276362+00:00",
        "meta_object_name": "FENGYUN 1C DEB",
        "meta_object_id": "1999-025DJ",
        "meta_epoch": "2025-12-13T01:57:22.411296",
        "meta_mean_motion": 14.44307266,
        "meta_eccentricity": 0.02377073,
        "meta_inclination": 98.9933,
        "meta_ra_of_asc_node": 207.0991,
        "meta_arg_of_pericenter": 176.1072,
        "meta_mean_anomaly": 345.0396,
        "meta_ephemeris_type": 0,
        "meta_classification_type": "U",
        "meta_norad_cat_id": 29816,
        "meta_element_set_no": 999,
        "meta_rev_at_epoch": 98192,
        "meta_bstar": 0.0016265823,
        "meta_mean_motion_dot": 7.86e-05,
        "meta_mean_motion_ddot": 0,
        "tle_line1": "1 29816U 99025DJ  25347.08150939  .00007860  00000+0  16266-2 0  9990",
        "tle_line2": "2 29816  98.9933 207.0991 0237707 176.1072 345.0396 14.44307266981923"
      },
      "geometry": {
        "type": "Point",
        "coordinates": [
          3.562038529569863,
          -68.99642720501201
        ]
      }
    },
    {
      "type": "Feature",
      "properties": {
        "norad_id": 29817,
        "name": "FENGYUN 1C DEB",
        "group": "fengyun-1c-debris",
        "lat": 65.45958160540177,
        "lon": -42.24312446062579,
        "alt_km": 833.283825218673,
        "timestamp": "2025-12-13T20:38:51.276387+00:00",
        "meta_object_name": "FENGYUN 1C DEB",
        "meta_object_id": "1999-025DK",
        "meta_epoch": "2025-12-13T05:21:22.181760",
        "meta_mean_motion": 14.14253513,
        "meta_eccentricity": 0.00122521,
        "meta_inclination": 98.5576,
        "meta_ra_of_asc_node": 336.4025,
        "meta_arg_of_pericenter": 14.3199,
        "meta_mean_anomaly": 50.4565,
        "meta_ephemeris_type": 0,
        "meta_classification_type": "U",
        "meta_norad_cat_id": 29817,
        "meta_element_set_no": 999,
        "meta_rev_at_epoch": 97402,
        "meta_bstar": 0.00050036752,
        "meta_mean_motion_dot": 9.14e-06,
        "meta_mean_motion_ddot": 0,
        "tle_line1": "1 29817U 99025DK  25347.22317340  .00000914  00000+0  50037-3 0  9996",
        "tle_line2": "2 29817  98.5576 336.4025 0012252  14.3199  50.4565 14.14253513974027"
      },
      "geometry": {
        "type": "Point",
        "coordinates": [
          -42.24312446062579,
          65.45958160540177
        ]
      }
    },
    {
      "type": "Feature",
      "properties": {
        "norad_id": 29818,
        "name": "FENGYUN 1C DEB",
        "group": "fengyun-1c-debris",
        "lat": 55.01244623155057,
        "lon": 57.799296623766196,
        "alt_km": 888.3459827941751,
        "timestamp": "2025-12-13T20:38:51.276400+00:00",
        "meta_object_name": "FENGYUN 1C DEB",
        "meta_object_id": "1999-025DL",
        "meta_epoch": "2025-12-13T06:55:49.357344",
        "meta_mean_motion": 14.04501493,
        "meta_eccentricity": 0.0115249,
        "meta_inclination": 98.721,
        "meta_ra_of_asc_node": 224.5816,
        "meta_arg_of_pericenter": 24.3254,
        "meta_mean_anomaly": 90.0644,
        "meta_ephemeris_type": 0,
        "meta_classification_type": "U",
        "meta_norad_cat_id": 29818,
        "meta_element_set_no": 999,
        "meta_rev_at_epoch": 96817,
        "meta_bstar": 0.0002408984,
        "meta_mean_motion_dot": 3.66e-06,
        "meta_mean_motion_ddot": 0,
        "tle_line1": "1 29818U 99025DL  25347.28876571  .00000366  00000+0  24090-3 0  9990",
        "tle_line2": "2 29818  98.7210 224.5816 0115249  24.3254  90.0644 14.04501493968172"
      },
      "geometry": {
        "type": "Point",
        "coordinates": [
          57.799296623766196,
          55.01244623155057
        ]
      }
    },
    {
      "type": "Feature",
      "properties": {
        "norad_id": 29819,
        "name": "FENGYUN 1C DEB",
        "group": "fengyun-1c-debris",
        "lat": -45.69480794049829,
        "lon": 142.49594812509224,
        "alt_km": 1025.2220778653646,
        "timestamp": "2025-12-13T20:38:51.276411+00:00",
        "meta_object_name": "FENGYUN 1C DEB",
        "meta_object_id": "1999-025DM",
        "meta_epoch": "2025-12-12T21:34:38.637984",
        "meta_mean_motion": 14.02196402,
        "meta_eccentricity": 0.01914846,
        "meta_inclination": 98.7322,
        "meta_ra_of_asc_node": 330.6343,
        "meta_arg_of_pericenter": 66.6332,
        "meta_mean_anomaly": 349.3425,
        "meta_ephemeris_type": 0,
        "meta_classification_type": "U",
        "meta_norad_cat_id": 29819,
        "meta_element_set_no": 999,
        "meta_rev_at_epoch": 96622,
        "meta_bstar": 0.00061049665,
        "meta_mean_motion_dot": 1.057e-05,
        "meta_mean_motion_ddot": 0,
        "tle_line1": "1 29819U 99025DM  25346.89905831  .00001057  00000+0  61050-3 0  9994",
        "tle_line2": "2 29819  98.7322 330.6343 0191484  66.6332 349.3425 14.02196402966221"
      },
      "geometry": {
        "type": "Point",
        "coordinates": [
          142.49594812509224,
          -45.69480794049829
        ]
      }
    },
    {
      "type": "Feature",
      "properties": {
        "norad_id": 29820,
        "name": "FENGYUN 1C DEB",
        "group": "fengyun-1c-debris",
        "lat": -25.52671603740696,
        "lon": 170.61993988927762,
        "alt_km": 844.3580624673505,
        "timestamp": "2025-12-13T20:38:51.276421+00:00",
        "meta_object_name": "FENGYUN 1C DEB",
        "meta_object_id": "1999-025DN",
        "meta_epoch": "2025-12-13T07:46:01.319232",
        "meta_mean_motion": 14.02606148,
        "meta_eccentricity": 0.00721178,
        "meta_inclination": 98.8318,
        "meta_ra_of_asc_node": 354.3575,
        "meta_arg_of_pericenter": 236.0966,
        "meta_mean_anomaly": 141.5922,
        "meta_ephemeris_type": 0,
        "meta_classification_type": "U",
        "meta_norad_cat_id": 29820,
        "meta_element_set_no": 999,
        "meta_rev_at_epoch": 96568,
        "meta_bstar": 0.00085179117,
        "meta_mean_motion_dot": 1.3e-05,
        "meta_mean_motion_ddot": 0,
        "tle_line1": "1 29820U 99025DN  25347.32362638  .00001300  00000+0  85179-3 0  9996",
        "tle_line2": "2 29820  98.8318 354.3575 0072117 236.0966 141.5922 14.02606148965682"
      },
      "geometry": {
        "type": "Point",
        "coordinates": [
          170.61993988927762,
          -25.52671603740696
        ]
      }
    },
    {
      "type": "Feature",
      "properties": {
        "norad_id": 29821,
        "name": "FENGYUN 1C DEB",
        "group": "fengyun-1c-debris",
        "lat": -68.22883005444109,
        "lon": 65.8708920482719,
        "alt_km": 1132.67109925977,
        "timestamp": "2025-12-13T20:38:51.276432+00:00",
        "meta_object_name": "FENGYUN 1C DEB",
        "meta_object_id": "1999-025DP",
        "meta_epoch": "2025-12-13T02:25:29.805888",
        "meta_mean_motion": 14.11071831,
        "meta_eccentricity": 0.03763443,
        "meta_inclination": 98.8739,
        "meta_ra_of_asc_node": 42.0915,
        "meta_arg_of_pericenter": 119.6824,
        "meta_mean_anomaly": 274.8639,
        "meta_ephemeris_type": 0,
        "meta_classification_type": "U",
        "meta_norad_cat_id": 29821,
        "meta_element_set_no": 999,
        "meta_rev_at_epoch": 96516,
        "meta_bstar": 0.0011941901,
        "meta_mean_motion_dot": 4.147e-05,
        "meta_mean_motion_ddot": 0,
        "tle_line1": "1 29821U 99025DP  25347.10103942  .00004147  00000+0  11942-2 0  9992",
        "tle_line2": "2 29821  98.8739  42.0915 0376344 119.6824 274.8639 14.11071831965160"
      },
      "geometry": {
        "type": "Point",
        "coordinates": [
          65.8708920482719,
          -68.22883005444109
        ]
      }
    },
    {
      "type": "Feature",
      "properties": {
        "norad_id": 29827,
        "name": "FENGYUN 1C DEB",
        "group": "fengyun-1c-debris",
        "lat": -44.22535466633153,
        "lon": -12.496865580968912,
        "alt_km": 808.3320514463076,
        "timestamp": "2025-12-13T20:38:51.276441+00:00",
        "meta_object_name": "FENGYUN 1C DEB",
        "meta_object_id": "1999-025DV",
        "meta_epoch": "2025-12-12T23:12:43.768800",
        "meta_mean_motion": 14.21687985,
        "meta_eccentricity": 0.0025015,
        "meta_inclination": 98.6023,
        "meta_ra_of_asc_node": 338.1601,
        "meta_arg_of_pericenter": 321.8122,
        "meta_mean_anomaly": 104.8463,
        "meta_ephemeris_type": 0,
        "meta_classification_type": "U",
        "meta_norad_cat_id": 29827,
        "meta_element_set_no": 999,
        "meta_rev_at_epoch": 97866,
        "meta_bstar": 0.00051440272,
        "meta_mean_motion_dot": 1.09e-05,
        "meta_mean_motion_ddot": 0,
        "tle_line1": "1 29827U 99025DV  25346.96717325  .00001090  00000+0  51440-3 0  9999",
        "tle_line2": "2 29827  98.6023 338.1601 0025015 321.8122 104.8463 14.21687985978665"
      },
      "geometry": {
        "type": "Point",
        "coordinates": [
          -12.496865580968912,
          -44.22535466633153
        ]
      }
    }
  ]
}